DUPLEX                  
1 66906U 98067XS  26017.15328362  .00029075  00000+0  47045-3 0  9998
2 66906  51.6322 326.5208 0002198  23.5991 336.5100 15.52575732  7112
1998-067XT              
1 66907U 98067XT  26017.28894711  .00081741  00000+0  11197-2 0  9995
2 66907  51.6304 325.1763 0003576  75.1195 285.0193 15.56666073  7140
1998-067XU              
1 66908U 98067XU  26017.22391871  .00076157  00000+0  10474-2 0  9991
2 66908  51.6309 325.4903 0003477  69.4149 290.7216 15.56588229  7134
SILVERSAT               
1 66909U 98067XV  26017.21424901  .00095884  00000+0  12757-2 0  9996
2 66909  51.6304 325.4267 0003762  80.6753 279.4664 15.57375299  7139
1998-067XW              
1 66910U 98067XW  26017.28056132  .00077594  00000+0  10528-2 0  9994
2 66910  51.6293 325.1176 0002476  56.8464 303.2765 15.56947427  7145
1998-067XX              
1 66911U 98067XX  26017.13519591  .00098520  00000+0  12717-2 0  9996
2 66911  51.6293 325.6476 0002516  77.2390 282.8883 15.58174598  7117
1998-067XY              
1 66912U 98067XY  26017.05293847  .00055616  00000+0  81160-3 0  9999
2 66912  51.6313 326.5995 0003344  53.3923 306.7375 15.55115671  7097
